STARLINK-37781          
1 69341U 26122N   26165.50003471  .00177384  00000+0  91155-3 0  9999
2 69341  97.2832 194.8155 0000964 116.0490 286.8290 15.80733087  2929
STARLINK-37782          
1 69342U 26122P   26165.50003471 -.01145483  00000+0 -61260-2 0  9991
2 69342  97.2827 194.8378 0001366  84.4557  13.2891 15.82680627  2922
STARLINK-37776          
1 69343U 26122Q   26165.50003471 -.01145462  00000+0 -60840-2 0  9992
2 69343  97.2824 194.8398 0001377  81.9410  20.8864 15.82826207  2924
STARLINK-37786          
1 69344U 26122R   26165.50003471 -.00606244  00000+0 -31087-2 0  9993
2 69344  97.2830 194.8456 0001244  96.2251  19.4519 15.82679794  2920
STARLINK-37785          
1 69345U 26122S   26165.50003471 -.01117402  00000+0 -59002-2 0  9995
2 69345  97.2824 194.8460 0001225  89.5529  27.8506 15.83317442  2920
STARLINK-37773          
1 69346U 26122T   26165.50003471  .00156370  00000+0  80405-3 0  9992
2 69346  97.2836 194.8463 0000788 103.3751  11.5415 15.80775252  2970
STARLINK-37744          
1 69347U 26122U   26165.50003471  .00097056  00000+0  50282-3 0  9998
2 69347  97.2836 194.8492 0001038  75.4529  48.2043 15.80772824  2925
STARLINK-37775          
1 69348U 26122V   26165.50003471  .00078011  00000+0  40590-3 0  9990
2 69348  97.2836 194.8466 0001936 117.0634 355.7102 15.80732732  2920
STARLINK-37777          
1 69349U 26122W   26165.50003471 -.00024405  00000+0 -12671-3 0  9990
2 69349  97.2833 194.8458 0001724 113.1002   0.4247 15.80869719  2920
STARLINK-37779          
1 69350U 26122X   26165.50003471  .00191327  00000+0  98354-3 0  9990
2 69350  97.2838 194.8491 0000726 113.7994   6.6553 15.80688713  2922
STARLINK-37549          
1 69351U 26122Y   26165.50003471  .00403993  00000+0  20242-2 0  9996
2 69351  97.2838 194.8433 0001603  95.6724   8.9551 15.80701218  2922
STARLINK-37778          
1 69352U 26122Z   26165.50003471  .00166646  00000+0  85668-3 0  9992
2 69352  97.2836 194.8527 0001349 100.0614  27.6345 15.80753309  2928
STARLINK-37651          
1 69353U 26123A   26165.50003471  .00070853  00000+0  36011-3 0  9996
2 69353  53.1590 255.2748 0001382  88.5282 175.5694 15.80839987  2727
STARLINK-37652          
1 69354U 26123B   26165.50003471  .00048074  00000+0  24604-3 0  9992
2 69354  53.1589 255.2885 0001041  86.9522 170.6485 15.80847722  2729
STARLINK-37593          
1 69355U 26123C   26165.50003471  .00076275  00000+0  38716-3 0  9996
2 69355  53.1589 255.2776 0001142  78.2217 184.3402 15.80840364  2777
STARLINK-37597          
1 69356U 26123D   26165.50003471  .00072737  00000+0  36964-3 0  9999
2 69356  53.1590 255.2583 0001237  84.8582 186.9812 15.80832661  2773
STARLINK-37598          
1 69357U 26123E   26165.50003471  .00083449  00000+0  42313-3 0  9997
2 69357  53.1592 255.2338 0001150 101.5862 182.2050 15.80828079  2777
STARLINK-37602          
1 69358U 26123F   26165.50003471 -.01475043  00000+0 -82948-2 0  9993
2 69358  53.1592 255.2242 0000868 107.8896 180.7227 15.81275589  2775
STARLINK-37600          
1 69359U 26123G   26165.50003471 -.00080187  00000+0 -40581-3 0  9992
2 69359  53.1592 255.1897 0001141  75.6486 229.8241 15.80909234  2774
STARLINK-37599          
1 69360U 26123H   26165.50003471  .00034048  00000+0  17542-3 0  9998
2 69360  53.1590 255.1119 0001301  72.6995 270.1476 15.80865985  2729
STARLINK-37039          
1 69361U 26123J   26165.50003471  .00015588  00000+0  82411-4 0  9995
2 69361  53.1618 255.1687 0001340  75.9429 238.8482 15.80863069  2721
STARLINK-37040          
1 69362U 26123K   26165.50003471 -.01985721  00000+0 -86662-2 0  9994
2 69362  53.1570 254.9732 0000808  74.1328 335.5613 15.86925554  2729
STARLINK-37582          
1 69363U 26123L   26165.50003471  .00041282  00000+0  21168-3 0  9998
2 69363  53.1594 255.1130 0000883  48.8033 293.2788 15.80874153  2720
STARLINK-37309          
1 69364U 26123M   26165.50003471 -.01900578  00000+0 -73289-2 0  9994
2 69364  53.1562 254.8898 0001039  56.5664  33.4668 15.89761376  2860
STARLINK-37436          
1 69365U 26123N   26165.50003471 -.01995789  00000+0 -74491-2 0  9999
2 69365  53.1564 254.8554 0001078  54.0716  52.4570 15.90024076  2860
STARLINK-37581          
1 69366U 26123P   26165.50003471 -.01944631  00000+0 -79570-2 0  9993
2 69366  53.1564 254.8736 0001173  59.6053  38.2403 15.88143633  2713
STARLINK-37683          
1 69367U 26123Q   26165.50003471 -.01983239  00000+0 -76330-2 0  9992
2 69367  53.1564 254.8424 0001048  58.9182  53.8314 15.89408133  2729
STARLINK-37687          
1 69368U 26123R   26165.50003471 -.01885921  00000+0 -72336-2 0  9994
2 69368  53.1564 254.7991 0001205  51.8494  81.6789 15.89835226  2723
STARLINK-37631          
1 69369U 26123S   26165.50003471 -.02182322  00000+0 -86957-2 0  9995
2 69369  53.1562 254.7943 0001118  59.8555  76.0772 15.89036005  2771
STARLINK-37673          
1 69370U 26123T   26165.50003471 -.02141841  00000+0 -87862-2 0  9994
2 69370  53.1561 254.7819 0001003  67.8394  73.9740 15.88401995  2771
