OBJECT_NAME,OBJECT_ID,EPOCH,MEAN_MOTION,ECCENTRICITY,INCLINATION,RA_OF_ASC_NODE,ARG_OF_PERICENTER,MEAN_ANOMALY,EPHEMERIS_TYPE,CLASSIFICATION_TYPE,NORAD_CAT_ID,ELEMENT_SET_NO,REV_AT_EPOCH,BSTAR,MEAN_MOTION_DOT,MEAN_MOTION_DDOT
STARLINK-37781,2026-122N,2026-06-14T12:00:02.998944,15.80733087,.0000964,97.2832,194.8155,116.0490,286.8290,0,U,69341,999,292,.91155E-3,.177384E-2,0
STARLINK-37782,2026-122P,2026-06-14T12:00:02.998944,15.82680627,.0001366,97.2827,194.8378,84.4557,13.2891,0,U,69342,999,292,-.6126E-2,-.1145483E-1,0
STARLINK-37776,2026-122Q,2026-06-14T12:00:02.998944,15.82826207,.0001377,97.2824,194.8398,81.9410,20.8864,0,U,69343,999,292,-.6084E-2,-.1145462E-1,0
STARLINK-37786,2026-122R,2026-06-14T12:00:02.998944,15.82679794,.0001244,97.2830,194.8456,96.2251,19.4519,0,U,69344,999,292,-.31087E-2,-.606244E-2,0
STARLINK-37785,2026-122S,2026-06-14T12:00:02.998944,15.83317442,.0001225,97.2824,194.8460,89.5529,27.8506,0,U,69345,999,292,-.59002E-2,-.1117402E-1,0
STARLINK-37773,2026-122T,2026-06-14T12:00:02.998944,15.80775252,.0000788,97.2836,194.8463,103.3751,11.5415,0,U,69346,999,297,.80405E-3,.15637E-2,0
STARLINK-37744,2026-122U,2026-06-14T12:00:02.998944,15.80772824,.0001038,97.2836,194.8492,75.4529,48.2043,0,U,69347,999,292,.50282E-3,.97056E-3,0
STARLINK-37775,2026-122V,2026-06-14T12:00:02.998944,15.80732732,.0001936,97.2836,194.8466,117.0634,355.7102,0,U,69348,999,292,.4059E-3,.78011E-3,0
STARLINK-37777,2026-122W,2026-06-14T12:00:02.998944,15.80869719,.0001724,97.2833,194.8458,113.1002,0.4247,0,U,69349,999,292,-.12671E-3,-.24405E-3,0
STARLINK-37779,2026-122X,2026-06-14T12:00:02.998944,15.80688713,.0000726,97.2838,194.8491,113.7994,6.6553,0,U,69350,999,292,.98354E-3,.191327E-2,0
STARLINK-37549,2026-122Y,2026-06-14T12:00:02.998944,15.80701218,.0001603,97.2838,194.8433,95.6724,8.9551,0,U,69351,999,292,.20242E-2,.403993E-2,0
STARLINK-37778,2026-122Z,2026-06-14T12:00:02.998944,15.80753309,.0001349,97.2836,194.8527,100.0614,27.6345,0,U,69352,999,292,.85668E-3,.166646E-2,0
STARLINK-37651,2026-123A,2026-06-14T12:00:02.998944,15.80839987,.0001382,53.1590,255.2748,88.5282,175.5694,0,U,69353,999,272,.36011E-3,.70853E-3,0
STARLINK-37652,2026-123B,2026-06-14T12:00:02.998944,15.80847722,.0001041,53.1589,255.2885,86.9522,170.6485,0,U,69354,999,272,.24604E-3,.48074E-3,0
STARLINK-37593,2026-123C,2026-06-14T12:00:02.998944,15.80840364,.0001142,53.1589,255.2776,78.2217,184.3402,0,U,69355,999,277,.38716E-3,.76275E-3,0
STARLINK-37597,2026-123D,2026-06-14T12:00:02.998944,15.80832661,.0001237,53.1590,255.2583,84.8582,186.9812,0,U,69356,999,277,.36964E-3,.72737E-3,0
STARLINK-37598,2026-123E,2026-06-14T12:00:02.998944,15.80828079,.000115,53.1592,255.2338,101.5862,182.2050,0,U,69357,999,277,.42313E-3,.83449E-3,0
STARLINK-37602,2026-123F,2026-06-14T12:00:02.998944,15.81275589,.0000868,53.1592,255.2242,107.8896,180.7227,0,U,69358,999,277,-.82948E-2,-.1475043E-1,0
STARLINK-37600,2026-123G,2026-06-14T12:00:02.998944,15.80909234,.0001141,53.1592,255.1897,75.6486,229.8241,0,U,69359,999,277,-.40581E-3,-.80187E-3,0
STARLINK-37599,2026-123H,2026-06-14T12:00:02.998944,15.80865985,.0001301,53.1590,255.1119,72.6995,270.1476,0,U,69360,999,272,.17542E-3,.34048E-3,0
STARLINK-37039,2026-123J,2026-06-14T12:00:02.998944,15.80863069,.000134,53.1618,255.1687,75.9429,238.8482,0,U,69361,999,272,.82411E-4,.15588E-3,0
STARLINK-37040,2026-123K,2026-06-14T12:00:02.998944,15.86925554,.0000808,53.1570,254.9732,74.1328,335.5613,0,U,69362,999,272,-.86662E-2,-.1985721E-1,0
STARLINK-37582,2026-123L,2026-06-14T12:00:02.998944,15.80874153,.0000883,53.1594,255.1130,48.8033,293.2788,0,U,69363,999,272,.21168E-3,.41282E-3,0
STARLINK-37309,2026-123M,2026-06-14T12:00:02.998944,15.89761376,.0001039,53.1562,254.8898,56.5664,33.4668,0,U,69364,999,286,-.73289E-2,-.1900578E-1,0
STARLINK-37436,2026-123N,2026-06-14T12:00:02.998944,15.90024076,.0001078,53.1564,254.8554,54.0716,52.4570,0,U,69365,999,286,-.74491E-2,-.1995789E-1,0
STARLINK-37581,2026-123P,2026-06-14T12:00:02.998944,15.88143633,.0001173,53.1564,254.8736,59.6053,38.2403,0,U,69366,999,271,-.7957E-2,-.1944631E-1,0
STARLINK-37683,2026-123Q,2026-06-14T12:00:02.998944,15.89408133,.0001048,53.1564,254.8424,58.9182,53.8314,0,U,69367,999,272,-.7633E-2,-.1983239E-1,0
STARLINK-37687,2026-123R,2026-06-14T12:00:02.998944,15.89835226,.0001205,53.1564,254.7991,51.8494,81.6789,0,U,69368,999,272,-.72336E-2,-.1885921E-1,0
STARLINK-37631,2026-123S,2026-06-14T12:00:02.998944,15.89036005,.0001118,53.1562,254.7943,59.8555,76.0772,0,U,69369,999,277,-.86957E-2,-.2182322E-1,0
STARLINK-37673,2026-123T,2026-06-14T12:00:02.998944,15.88401995,.0001003,53.1561,254.7819,67.8394,73.9740,0,U,69370,999,277,-.87862E-2,-.2141841E-1,0
